{"type": "FeatureCollection", "features": [ {"type": "Feature", "properties": {"norad_id": 29820, "name": "FENGYUN 1C DEB", "group": "fengyun-1c-debris", "lat": -70.22549340234845, "lon": 33.59504918439884, "alt_km": 892.5380133953022, "timestamp": "2025-12-27T08:36:18.653975+00:00", "meta": {"OBJECT_NAME": "FENGYUN 1C DEB", "OBJECT_ID": "1999-025DN", "EPOCH": "2025-12-27T00:28:36.823296", "MEAN_MOTION": 14.02635456, "ECCENTRICITY": 0.0072452, "INCLINATION": 98.8332, "RA_OF_ASC_NODE": 7.6391, "ARG_OF_PERICENTER": 197.6663, "MEAN_ANOMALY": 180.0936, "EPHEMERIS_TYPE": 0, "CLASSIFICATION_TYPE": "U", "NORAD_CAT_ID": 29820, "ELEMENT_SET_NO": 999, "REV_AT_EPOCH": 96760, "BSTAR": 0.0006958, "MEAN_MOTION_DOT": 1.056e-05, "MEAN_MOTION_DDOT": 0}, "tle": {"line1": "1 29820U 99025DN  25361.01987064  .00001056  00000+0  69580-3 0  9990", "line2": "2 29820  98.8332   7.6391 0072452 197.6663 180.0936 14.02635456967601"}}, "geometry": {"type": "Point", "coordinates": [33.59504918439884, -70.22549340234845]}}, {"type": "Feature", "properties": {"norad_id": 29821, "name": "FENGYUN 1C DEB", "group": "fengyun-1c-debris", "lat": 59.21740358248903, "lon": 41.01377051012725, "alt_km": 591.2815492541931, "timestamp": "2025-12-27T08:36:18.653985+00:00", "meta": {"OBJECT_NAME": "FENGYUN 1C DEB", "OBJECT_ID": "1999-025DP", "EPOCH": "2025-12-27T03:28:34.047264", "MEAN_MOTION": 14.11127532, "ECCENTRICITY": 0.0376108, "INCLINATION": 98.8715, "RA_OF_ASC_NODE": 56.0018, "ARG_OF_PERICENTER": 79.9843, "MEAN_ANOMALY": 336.7769, "EPHEMERIS_TYPE": 0, "CLASSIFICATION_TYPE": "U", "NORAD_CAT_ID": 29821, "ELEMENT_SET_NO": 999, "REV_AT_EPOCH": 96714, "BSTAR": 0.00056238, "MEAN_MOTION_DOT": 1.926e-05, "MEAN_MOTION_DDOT": 0}, "tle": {"line1": "1 29821U 99025DP  25361.14483851  .00001926  00000+0  56238-3 0  9992", "line2": "2 29821  98.8715  56.0018 0376108  79.9843 336.7769 14.11127532967142"}}, "geometry": {"type": "Point", "coordinates": [41.01377051012725, 59.21740358248903]}}, {"type": "Feature", "properties": {"norad_id": 29827, "name": "FENGYUN 1C DEB", "group": "fengyun-1c-debris", "lat": -60.39615930654484, "lon": 156.73504328891863, "alt_km": 812.626576908574, "timestamp": "2025-12-27T08:36:18.653995+00:00", "meta": {"OBJECT_NAME": "FENGYUN 1C DEB", "OBJECT_ID": "1999-025DV", "EPOCH": "2025-12-26T23:17:18.682368", "MEAN_MOTION": 14.21708612, "ECCENTRICITY": 0.0024536, "INCLINATION": 98.6036, "RA_OF_ASC_NODE": 351.8106, "ARG_OF_PERICENTER": 279.9133, "MEAN_ANOMALY": 136.0503, "EPHEMERIS_TYPE": 0, "CLASSIFICATION_TYPE": "U", "NORAD_CAT_ID": 29827, "ELEMENT_SET_NO": 999, "REV_AT_EPOCH": 98065, "BSTAR": 0.00037176, "MEAN_MOTION_DOT": 7.76e-06, "MEAN_MOTION_DDOT": 0}, "tle": {"line1": "1 29827U 99025DV  25360.97035512  .00000776  00000+0  37176-3 0  9997", "line2": "2 29827  98.6036 351.8106 0024536 279.9133 136.0503 14.21708612980658"}}, "geometry": {"type": "Point", "coordinates": [156.73504328891863, -60.39615930654484]}}, {"type": "Feature", "properties": {"norad_id": 29828, "name": "FENGYUN 1C DEB", "group": "fengyun-1c-debris", "lat": -51.39135904735276, "lon": 57.56128470422893, "alt_km": 915.8389310453849, "timestamp": "2025-12-27T08:36:18.654006+00:00", "meta": {"OBJECT_NAME": "FENGYUN 1C DEB", "OBJECT_ID": "1999-025DW", "EPOCH": "2025-12-27T02:10:23.793024", "MEAN_MOTION": 14.0820306, "ECCENTRICITY": 0.0061365, "INCLINATION": 98.7689, "RA_OF_ASC_NODE": 46.156, "ARG_OF_PERICENTER": 116.2611, "MEAN_ANOMALY": 273.8587, "EPHEMERIS_TYPE": 0, "CLASSIFICATION_TYPE": "U", "NORAD_CAT_ID": 29828, "ELEMENT_SET_NO": 999, "REV_AT_EPOCH": 96939, "BSTAR": 0.00078995, "MEAN_MOTION_DOT": 1.329e-05, "MEAN_MOTION_DDOT": 0}, "tle": {"line1": "1 29828U 99025DW  25361.09055316  .00001329  00000+0  78995-3 0  9995", "line2": "2 29828  98.7689  46.1560 0061365 116.2611 273.8587 14.08203060969399"}}, "geometry": {"type": "Point", "coordinates": [57.56128470422893, -51.39135904735276]}}, {"type": "Feature", "properties": {"norad_id": 29832, "name": "FENGYUN 1C DEB", "group": "fengyun-1c-debris", "lat": 4.111668077029584, "lon": 112.99882392530156, "alt_km": 784.9108383878338, "timestamp": "2025-12-27T08:36:18.654016+00:00", "meta": {"OBJECT_NAME": "FENGYUN 1C DEB", "OBJECT_ID": "1999-025EA", "EPOCH": "2025-12-26T21:02:42.277344", "MEAN_MOTION": 14.56586665, "ECCENTRICITY": 0.0192333, "INCLINATION": 98.8195, "RA_OF_ASC_NODE": 113.1287, "ARG_OF_PERICENTER": 239.7753, "MEAN_ANOMALY": 118.4278, "EPHEMERIS_TYPE": 0, "CLASSIFICATION_TYPE": "U", "NORAD_CAT_ID": 29832, "ELEMENT_SET_NO": 999, "REV_AT_EPOCH": 461, "BSTAR": 0.00025224, "MEAN_MOTION_DOT": 1.38e-05, "MEAN_MOTION_DDOT": 0}, "tle": {"line1": "1 29832U 99025EA  25360.87687821  .00001380  00000+0  25224-3 0  9991", "line2": "2 29832  98.8195 113.1287 0192333 239.7753 118.4278 14.56586665  4610"}}, "geometry": {"type": "Point", "coordinates": [112.99882392530156, 4.111668077029584]}}, {"type": "Feature", "properties": {"norad_id": 29833, "name": "FENGYUN 1C DEB", "group": "fengyun-1c-debris", "lat": 31.86705115215029, "lon": -19.840088112135977, "alt_km": 653.4639031614643, "timestamp": "2025-12-27T08:36:18.654026+00:00", "meta": {"OBJECT_NAME": "FENGYUN 1C DEB", "OBJECT_ID": "1999-025EB", "EPOCH": "2025-12-26T21:11:13.072416", "MEAN_MOTION": 14.91407497, "ECCENTRICITY": 0.0088714, "INCLINATION": 99.0778, "RA_OF_ASC_NODE": 345.3171, "ARG_OF_PERICENTER": 211.2455, "MEAN_ANOMALY": 148.3469, "EPHEMERIS_TYPE": 0, "CLASSIFICATION_TYPE": "U", "NORAD_CAT_ID": 29833, "ELEMENT_SET_NO": 999, "REV_AT_EPOCH": 782, "BSTAR": 0.0011586, "MEAN_MOTION_DOT": 0.00012418, "MEAN_MOTION_DDOT": 0}, "tle": {"line1": "1 29833U 99025EB  25360.88279019  .00012418  00000+0  11586-2 0  9998", "line2": "2 29833  99.0778 345.3171 0088714 211.2455 148.3469 14.91407497  7827"}}, "geometry": {"type": "Point", "coordinates": [-19.840088112135977, 31.86705115215029]}}, {"type": "Feature", "properties": {"norad_id": 29835, "name": "FENGYUN 1C DEB", "group": "fengyun-1c-debris", "lat": -40.49732321623938, "lon": -57.17721021570809, "alt_km": 833.8938935745336, "timestamp": "2025-12-27T08:36:18.654037+00:00", "meta": {"OBJECT_NAME": "FENGYUN 1C DEB", "OBJECT_ID": "1999-025ED", "EPOCH": "2025-12-27T04:48:01.080000", "MEAN_MOTION": 14.43380451, "ECCENTRICITY": 0.0167185, "INCLINATION": 99.0264, "RA_OF_ASC_NODE": 130.4569, "ARG_OF_PERICENTER": 354.4021, "MEAN_ANOMALY": 124.719, "EPHEMERIS_TYPE": 0, "CLASSIFICATION_TYPE": "U", "NORAD_CAT_ID": 29835, "ELEMENT_SET_NO": 999, "REV_AT_EPOCH": 99703, "BSTAR": 5.9608e-05, "MEAN_MOTION_DOT": 1.8e-06, "MEAN_MOTION_DDOT": 0}, "tle": {"line1": "1 29835U 99025ED  25361.20001250  .00000180  00000+0  59608-4 0  9999", "line2": "2 29835  99.0264 130.4569 0167185 354.4021 124.7190 14.43380451997039"}}, "geometry": {"type": "Point", "coordinates": [-57.17721021570809, -40.49732321623938]}}, {"type": "Feature", "properties": {"norad_id": 29836, "name": "FENGYUN 1C DEB", "group": "fengyun-1c-debris", "lat": -42.07426781581138, "lon": 104.45674909502614, "alt_km": 821.8987344393918, "timestamp": "2025-12-27T08:36:18.654048+00:00", "meta": {"OBJECT_NAME": "FENGYUN 1C DEB", "OBJECT_ID": "1999-025EE", "EPOCH": "2025-12-26T18:32:46.889088", "MEAN_MOTION": 14.5419209, "ECCENTRICITY": 0.01551246, "INCLINATION": 98.1874, "RA_OF_ASC_NODE": 96.4155, "ARG_OF_PERICENTER": 159.0644, "MEAN_ANOMALY": 332.9837, "EPHEMERIS_TYPE": 0, "CLASSIFICATION_TYPE": "U", "NORAD_CAT_ID": 29836, "ELEMENT_SET_NO": 999, "REV_AT_EPOCH": 63759, "BSTAR": 0.00069347023, "MEAN_MOTION_DOT": 3.396e-05, "MEAN_MOTION_DDOT": 0}, "tle": {"line1": "1 29836U 99025EE  25360.77276492  .00003396  00000+0  69347-3 0  9995", "line2": "2 29836  98.1874  96.4155 0155124 159.0644 332.9837 14.54192090637594"}}, "geometry": {"type": "Point", "coordinates": [104.45674909502614, -42.07426781581138]}}, {"type": "Feature", "properties": {"norad_id": 29841, "name": "FENGYUN 1C DEB", "group": "fengyun-1c-debris", "lat": -67.41265975616601, "lon": -28.97330690298503, "alt_km": 602.1568906985494, "timestamp": "2025-12-27T08:36:18.654058+00:00", "meta": {"OBJECT_NAME": "FENGYUN 1C DEB", "OBJECT_ID": "1999-025EK", "EPOCH": "2025-12-26T19:53:04.206624", "MEAN_MOTION": 14.46538922, "ECCENTRICITY": 0.01996355, "INCLINATION": 98.8203, "RA_OF_ASC_NODE": 308.5586, "ARG_OF_PERICENTER": 291.2839, "MEAN_ANOMALY": 121.0341, "EPHEMERIS_TYPE": 0, "CLASSIFICATION_TYPE": "U", "NORAD_CAT_ID": 29841, "ELEMENT_SET_NO": 999, "REV_AT_EPOCH": 99527, "BSTAR": 0.00049942215, "MEAN_MOTION_DOT": 2.246e-05, "MEAN_MOTION_DDOT": 0}, "tle": {"line1": "1 29841U 99025EK  25360.82852091  .00002246  00000+0  49942-3 0  9994", "line2": "2 29841  98.8203 308.5586 0199635 291.2839 121.0341 14.46538922995276"}}, "geometry": {"type": "Point", "coordinates": [-28.97330690298503, -67.41265975616601]}}, {"type": "Feature", "properties": {"norad_id": 29842, "name": "FENGYUN 1C DEB", "group": "fengyun-1c-debris", "lat": -14.63732467737016, "lon": 91.64775430124881, "alt_km": 750.6824484617127, "timestamp": "2025-12-27T08:36:18.654069+00:00", "meta": {"OBJECT_NAME": "FENGYUN 1C DEB", "OBJECT_ID": "1999-025EL", "EPOCH": "2025-12-26T11:52:39.684000", "MEAN_MOTION": 14.6042932, "ECCENTRICITY": 0.0108919, "INCLINATION": 98.5677, "RA_OF_ASC_NODE": 88.4983, "ARG_OF_PERICENTER": 123.2158, "MEAN_ANOMALY": 4.9753, "EPHEMERIS_TYPE": 0, "CLASSIFICATION_TYPE": "U", "NORAD_CAT_ID": 29842, "ELEMENT_SET_NO": 999, "REV_AT_EPOCH": 99554, "BSTAR": 0.0012078, "MEAN_MOTION_DOT": 6.31e-05, "MEAN_MOTION_DDOT": 0}, "tle": {"line1": "1 29842U 99025EL  25360.49490375  .00006310  00000+0  12078-2 0  9996", "line2": "2 29842  98.5677  88.4983 0108919 123.2158   4.9753 14.60429320995540"}}, "geometry": {"type": "Point", "coordinates": [91.64775430124881, -14.63732467737016]}}]}